{
  "type": "FeatureCollection",
  "features": [
    {
      "type": "Feature",
      "properties": {
        "norad_id": 41890,
        "name": "CYGFM07",
        "group": "weather",
        "lat": -10.35891278424979,
        "lon": -81.44748583365882,
        "alt_km": 416.53805519728576,
        "timestamp": "2025-12-03T06:58:42.884121+00:00",
        "meta_object_name": "CYGFM07",
        "meta_object_id": "2016-078G",
        "meta_epoch": "2025-12-02T17:45:25.524000",
        "meta_mean_motion": 15.49376336,
        "meta_eccentricity": 0.0008905,
        "meta_inclination": 34.947,
        "meta_ra_of_asc_node": 86.9867,
        "meta_arg_of_pericenter": 122.8145,
        "meta_mean_anomaly": 237.3435,
        "meta_ephemeris_type": 0,
        "meta_classification_type": "U",
        "meta_norad_cat_id": 41890,
        "meta_element_set_no": 999,
        "meta_rev_at_epoch": 49840,
        "meta_bstar": 0.00048975,
        "meta_mean_motion_dot": 0.00027786,
        "meta_mean_motion_ddot": 0,
        "tle_line1": "1 41890U 16078G   25336.73987875  .00027786  00000+0  48975-3 0  9992",
        "tle_line2": "2 41890  34.9470  86.9867 0008905 122.8145 237.3435 15.49376336498409"
      },
      "geometry": {
        "type": "Point",
        "coordinates": [
          -81.44748583365882,
          -10.35891278424979
        ]
      }
    },
    {
      "type": "Feature",
      "properties": {
        "norad_id": 41891,
        "name": "CYGFM03",
        "group": "weather",
        "lat": 19.68530017525911,
        "lon": 116.11403807142693,
        "alt_km": 413.62807942712243,
        "timestamp": "2025-12-03T06:58:42.884140+00:00",
        "meta_object_name": "CYGFM03",
        "meta_object_id": "2016-078H",
        "meta_epoch": "2025-12-02T16:54:19.672704",
        "meta_mean_motion": 15.49277167,
        "meta_eccentricity": 0.0008247,
        "meta_inclination": 34.9422,
        "meta_ra_of_asc_node": 89.1307,
        "meta_arg_of_pericenter": 109.0477,
        "meta_mean_anomaly": 251.1138,
        "meta_ephemeris_type": 0,
        "meta_classification_type": "U",
        "meta_norad_cat_id": 41891,
        "meta_element_set_no": 999,
        "meta_rev_at_epoch": 49837,
        "meta_bstar": 0.00047863,
        "meta_mean_motion_dot": 0.0002705,
        "meta_mean_motion_ddot": 0,
        "tle_line1": "1 41891U 16078H   25336.70439436  .00027050  00000+0  47863-3 0  9994",
        "tle_line2": "2 41891  34.9422  89.1307 0008247 109.0477 251.1138 15.49277167498377"
      },
      "geometry": {
        "type": "Point",
        "coordinates": [
          116.11403807142693,
          19.68530017525911
        ]
      }
    },
    {
      "type": "Feature",
      "properties": {
        "norad_id": 43010,
        "name": "FENGYUN 3D",
        "group": "weather",
        "lat": -17.6147613772163,
        "lon": -53.6596052248759,
        "alt_km": 831.5261930500965,
        "timestamp": "2025-12-03T06:58:42.884152+00:00",
        "meta_object_name": "FENGYUN 3D",
        "meta_object_id": "2017-072A",
        "meta_epoch": "2025-12-02T20:54:49.018752",
        "meta_mean_motion": 14.19679097,
        "meta_eccentricity": 5.81e-05,
        "meta_inclination": 98.9879,
        "meta_ra_of_asc_node": 303.0345,
        "meta_arg_of_pericenter": 225.1398,
        "meta_mean_anomaly": 134.973,
        "meta_ephemeris_type": 0,
        "meta_classification_type": "U",
        "meta_norad_cat_id": 43010,
        "meta_element_set_no": 999,
        "meta_rev_at_epoch": 41713,
        "meta_bstar": 9.8281e-05,
        "meta_mean_motion_dot": 1.62e-06,
        "meta_mean_motion_ddot": 0,
        "tle_line1": "1 43010U 17072A   25336.87140068  .00000162  00000+0  98281-4 0  9998",
        "tle_line2": "2 43010  98.9879 303.0345 0000581 225.1398 134.9730 14.19679097417138"
      },
      "geometry": {
        "type": "Point",
        "coordinates": [
          -53.6596052248759,
          -17.6147613772163
        ]
      }
    },
    {
      "type": "Feature",
      "properties": {
        "norad_id": 43013,
        "name": "NOAA 20 (JPSS-1)",
        "group": "weather",
        "lat": 39.18538522163142,
        "lon": 100.91060877521286,
        "alt_km": 822.8051343363659,
        "timestamp": "2025-12-03T06:58:42.884163+00:00",
        "meta_object_name": "NOAA 20 (JPSS-1)",
        "meta_object_id": "2017-073A",
        "meta_epoch": "2025-12-02T20:10:14.314080",
        "meta_mean_motion": 14.19521388,
        "meta_eccentricity": 0.0002052,
        "meta_inclination": 98.7584,
        "meta_ra_of_asc_node": 273.2461,
        "meta_arg_of_pericenter": 101.5196,
        "meta_mean_anomaly": 258.6211,
        "meta_ephemeris_type": 0,
        "meta_classification_type": "U",
        "meta_norad_cat_id": 43013,
        "meta_element_set_no": 999,
        "meta_rev_at_epoch": 41661,
        "meta_bstar": 7.8309e-05,
        "meta_mean_motion_dot": 1.21e-06,
        "meta_mean_motion_ddot": 0,
        "tle_line1": "1 43013U 17073A   25336.84044345  .00000121  00000+0  78309-4 0  9994",
        "tle_line2": "2 43013  98.7584 273.2461 0002052 101.5196 258.6211 14.19521388416616"
      },
      "geometry": {
        "type": "Point",
        "coordinates": [
          100.91060877521286,
          39.18538522163142
        ]
      }
    },
    {
      "type": "Feature",
      "properties": {
        "norad_id": 43226,
        "name": "GOES 17",
        "group": "weather",
        "lat": 0.006690006574082888,
        "lon": 87.53777859619304,
        "alt_km": 35800.40090652531,
        "timestamp": "2025-12-03T06:58:42.884175+00:00",
        "meta_object_name": "GOES 17",
        "meta_object_id": "2018-022A",
        "meta_epoch": "2025-12-02T13:21:34.968672",
        "meta_mean_motion": 1.00271638,
        "meta_eccentricity": 0.00033689,
        "meta_inclination": 0.4312,
        "meta_ra_of_asc_node": 89.3419,
        "meta_arg_of_pericenter": 180.9825,
        "meta_mean_anomaly": 272.231,
        "meta_ephemeris_type": 0,
        "meta_classification_type": "U",
        "meta_norad_cat_id": 43226,
        "meta_element_set_no": 999,
        "meta_rev_at_epoch": 2845,
        "meta_bstar": 0,
        "meta_mean_motion_dot": -1.62e-06,
        "meta_mean_motion_ddot": 0,
        "tle_line1": "1 43226U 18022A   25336.55665473 -.00000162  00000+0  00000+0 0  9998",
        "tle_line2": "2 43226   0.4312  89.3419 0003368 180.9825 272.2310  1.00271638 28450"
      },
      "geometry": {
        "type": "Point",
        "coordinates": [
          87.53777859619304,
          0.006690006574082888
        ]
      }
    },
    {
      "type": "Feature",
      "properties": {
        "norad_id": 43491,
        "name": "FENGYUN 2H",
        "group": "weather",
        "lat": 0.1974333326850969,
        "lon": -103.58915272605074,
        "alt_km": 35774.23685162084,
        "timestamp": "2025-12-03T06:58:42.884187+00:00",
        "meta_object_name": "FENGYUN 2H",
        "meta_object_id": "2018-050A",
        "meta_epoch": "2025-12-02T20:20:17.023200",
        "meta_mean_motion": 1.00271461,
        "meta_eccentricity": 0.0002887,
        "meta_inclination": 2.5232,
        "meta_ra_of_asc_node": 81.4398,
        "meta_arg_of_pericenter": 161.9482,
        "meta_mean_anomaly": 212.9879,
        "meta_ephemeris_type": 0,
        "meta_classification_type": "U",
        "meta_norad_cat_id": 43491,
        "meta_element_set_no": 999,
        "meta_rev_at_epoch": 2747,
        "meta_bstar": 0,
        "meta_mean_motion_dot": -1.11e-06,
        "meta_mean_motion_ddot": 0,
        "tle_line1": "1 43491U 18050A   25336.84741925 -.00000111  00000+0  00000+0 0  9996",
        "tle_line2": "2 43491   2.5232  81.4398 0002887 161.9482 212.9879  1.00271461 27476"
      },
      "geometry": {
        "type": "Point",
        "coordinates": [
          -103.58915272605074,
          0.1974333326850969
        ]
      }
    },
    {
      "type": "Feature",
      "properties": {
        "norad_id": 43689,
        "name": "METOP-C",
        "group": "weather",
        "lat": -33.65738601192043,
        "lon": -150.64336208083486,
        "alt_km": 827.5335741527742,
        "timestamp": "2025-12-03T06:58:42.884200+00:00",
        "meta_object_name": "METOP-C",
        "meta_object_id": "2018-087A",
        "meta_epoch": "2025-12-02T19:50:21.217344",
        "meta_mean_motion": 14.21505697,
        "meta_eccentricity": 0.0001726,
        "meta_inclination": 98.6944,
        "meta_ra_of_asc_node": 34.7474,
        "meta_arg_of_pericenter": 58.4616,
        "meta_mean_anomaly": 301.673,
        "meta_ephemeris_type": 0,
        "meta_classification_type": "U",
        "meta_norad_cat_id": 43689,
        "meta_element_set_no": 999,
        "meta_rev_at_epoch": 36693,
        "meta_bstar": 0.00011123,
        "meta_mean_motion_dot": 2e-06,
        "meta_mean_motion_ddot": 0,
        "tle_line1": "1 43689U 18087A   25336.82663446  .00000200  00000+0  11123-3 0  9994",
        "tle_line2": "2 43689  98.6944  34.7474 0001726  58.4616 301.6730 14.21505697366934"
      },
      "geometry": {
        "type": "Point",
        "coordinates": [
          -150.64336208083486,
          -33.65738601192043
        ]
      }
    }
  ]
}